{"type": "FeatureCollection", "features": [ {"type": "Feature", "properties": {"norad_id": 41556, "name": "ZIYUAN 3-02 (ZY 3-02)", "group": "resource", "lat": -81.27864305055735, "lon": -163.03586725727786, "alt_km": 506.9626888414314, "timestamp": "2025-12-26T23:26:41.810907+00:00", "meta": {"OBJECT_NAME": "ZIYUAN 3-02 (ZY 3-02)", "OBJECT_ID": "2016-033A", "EPOCH": "2025-12-26T17:32:46.485312", "MEAN_MOTION": 15.21254966, "ECCENTRICITY": 0.0011564, "INCLINATION": 97.4023, "RA_OF_ASC_NODE": 74.6632, "ARG_OF_PERICENTER": 194.0874, "MEAN_ANOMALY": 166.0041, "EPHEMERIS_TYPE": 0, "CLASSIFICATION_TYPE": "U", "NORAD_CAT_ID": 41556, "ELEMENT_SET_NO": 999, "REV_AT_EPOCH": 53176, "BSTAR": 0.00033517, "MEAN_MOTION_DOT": 7.433e-05, "MEAN_MOTION_DDOT": 0}, "tle": {"line1": "1 41556U 16033A   25360.73109358  .00007433  00000+0  33517-3 0  9994", "line2": "2 41556  97.4023  74.6632 0011564 194.0874 166.0041 15.21254966531767"}}, "geometry": {"type": "Point", "coordinates": [-163.03586725727786, -81.27864305055735]}}, {"type": "Feature", "properties": {"norad_id": 41599, "name": "CARTOSAT-2C", "group": "resource", "lat": 73.67819233634533, "lon": -95.2841986986653, "alt_km": 500.67396772899974, "timestamp": "2025-12-26T23:26:41.810916+00:00", "meta": {"OBJECT_NAME": "CARTOSAT-2C", "OBJECT_ID": "2016-040A", "EPOCH": "2025-12-26T18:14:42.142272", "MEAN_MOTION": 15.19247239, "ECCENTRICITY": 0.0010645, "INCLINATION": 97.4744, "RA_OF_ASC_NODE": 57.8641, "ARG_OF_PERICENTER": 18.3374, "MEAN_ANOMALY": 341.8242, "EPHEMERIS_TYPE": 0, "CLASSIFICATION_TYPE": "U", "NORAD_CAT_ID": 41599, "ELEMENT_SET_NO": 999, "REV_AT_EPOCH": 52753, "BSTAR": 0.00029156, "MEAN_MOTION_DOT": 6.085e-05, "MEAN_MOTION_DDOT": 0}, "tle": {"line1": "1 41599U 16040A   25360.76020998  .00006085  00000+0  29156-3 0  9990", "line2": "2 41599  97.4744  57.8641 0010645  18.3374 341.8242 15.19247239527537"}}, "geometry": {"type": "Point", "coordinates": [-95.2841986986653, 73.67819233634533]}}, {"type": "Feature", "properties": {"norad_id": 41601, "name": "SKYSAT-C1", "group": "resource", "lat": 49.40347070242389, "lon": -134.59183115480883, "alt_km": 463.4490038984877, "timestamp": "2025-12-26T23:26:41.810926+00:00", "meta": {"OBJECT_NAME": "SKYSAT-C1", "OBJECT_ID": "2016-040C", "EPOCH": "2025-12-26T15:02:45.250368", "MEAN_MOTION": 15.32840769, "ECCENTRICITY": 7.87e-05, "INCLINATION": 96.9809, "RA_OF_ASC_NODE": 36.8576, "ARG_OF_PERICENTER": 308.5435, "MEAN_ANOMALY": 51.5738, "EPHEMERIS_TYPE": 0, "CLASSIFICATION_TYPE": "U", "NORAD_CAT_ID": 41601, "ELEMENT_SET_NO": 999, "REV_AT_EPOCH": 53140, "BSTAR": 0.0002948, "MEAN_MOTION_DOT": 9.28e-05, "MEAN_MOTION_DDOT": 0}, "tle": {"line1": "1 41601U 16040C   25360.62691262  .00009280  00000+0  29480-3 0  9997", "line2": "2 41601  96.9809  36.8576 0000787 308.5435  51.5738 15.32840769531407"}}, "geometry": {"type": "Point", "coordinates": [-134.59183115480883, 49.40347070242389]}}, {"type": "Feature", "properties": {"norad_id": 41603, "name": "LAPAN-A3", "group": "resource", "lat": -36.97231991771083, "lon": 172.59858384157752, "alt_km": 474.079697965416, "timestamp": "2025-12-26T23:26:41.810935+00:00", "meta": {"OBJECT_NAME": "LAPAN-A3", "OBJECT_ID": "2016-040E", "EPOCH": "2025-12-26T17:47:41.545248", "MEAN_MOTION": 15.3166782, "ECCENTRICITY": 0.0008638, "INCLINATION": 97.1437, "RA_OF_ASC_NODE": 357.7893, "ARG_OF_PERICENTER": 275.3209, "MEAN_ANOMALY": 84.7048, "EPHEMERIS_TYPE": 0, "CLASSIFICATION_TYPE": "U", "NORAD_CAT_ID": 41603, "ELEMENT_SET_NO": 999, "REV_AT_EPOCH": 52840, "BSTAR": 0.00015524, "MEAN_MOTION_DOT": 4.677e-05, "MEAN_MOTION_DDOT": 0}, "tle": {"line1": "1 41603U 16040E   25360.74145307  .00004677  00000+0  15524-3 0  9995", "line2": "2 41603  97.1437 357.7893 0008638 275.3209  84.7048 15.31667820528401"}}, "geometry": {"type": "Point", "coordinates": [172.59858384157752, -36.97231991771083]}}, {"type": "Feature", "properties": {"norad_id": 41604, "name": "BIROS", "group": "resource", "lat": -79.90817660522966, "lon": 77.21629800326649, "alt_km": 296.2516871316966, "timestamp": "2025-12-26T23:26:41.810945+00:00", "meta": {"OBJECT_NAME": "BIROS", "OBJECT_ID": "2016-040F", "EPOCH": "2025-12-26T14:45:38.450304", "MEAN_MOTION": 15.95497863, "ECCENTRICITY": 0.000398, "INCLINATION": 97.0651, "RA_OF_ASC_NODE": 32.6597, "ARG_OF_PERICENTER": 120.7736, "MEAN_ANOMALY": 239.3933, "EPHEMERIS_TYPE": 0, "CLASSIFICATION_TYPE": "U", "NORAD_CAT_ID": 41604, "ELEMENT_SET_NO": 999, "REV_AT_EPOCH": 53093, "BSTAR": 0.00064877, "MEAN_MOTION_DOT": 0.00256097, "MEAN_MOTION_DDOT": 2.75e-05}, "tle": {"line1": "1 41604U 16040F   25360.61502836  .00256097  27500-4  64877-3 0  9995", "line2": "2 41604  97.0651  32.6597 0003980 120.7736 239.3933 15.95497863530932"}}, "geometry": {"type": "Point", "coordinates": [77.21629800326649, -79.90817660522966]}}, {"type": "Feature", "properties": {"norad_id": 41727, "name": "GAOFEN-3", "group": "resource", "lat": 76.23579607628655, "lon": -136.53266701698587, "alt_km": 743.444126168135, "timestamp": "2025-12-26T23:26:41.810954+00:00", "meta": {"OBJECT_NAME": "GAOFEN-3", "OBJECT_ID": "2016-049A", "EPOCH": "2025-12-26T17:59:01.012128", "MEAN_MOTION": 14.4221647, "ECCENTRICITY": 0.0001057, "INCLINATION": 98.4041, "RA_OF_ASC_NODE": 6.1216, "ARG_OF_PERICENTER": 55.1155, "MEAN_ANOMALY": 305.0134, "EPHEMERIS_TYPE": 0, "CLASSIFICATION_TYPE": "U", "NORAD_CAT_ID": 41727, "ELEMENT_SET_NO": 999, "REV_AT_EPOCH": 49379, "BSTAR": -2.6658e-06, "MEAN_MOTION_DOT": -5.2e-07, "MEAN_MOTION_DDOT": 0}, "tle": {"line1": "1 41727U 16049A   25360.74931727 -.00000052  00000+0 -26658-5 0  9997", "line2": "2 41727  98.4041   6.1216 0001057  55.1155 305.0134 14.42216470493799"}}, "geometry": {"type": "Point", "coordinates": [-136.53266701698587, 76.23579607628655]}}, {"type": "Feature", "properties": {"norad_id": 41771, "name": "SKYSAT-C4", "group": "resource", "lat": -23.23530761012819, "lon": -157.52210318779626, "alt_km": 443.63500483175267, "timestamp": "2025-12-26T23:26:41.810963+00:00", "meta": {"OBJECT_NAME": "SKYSAT-C4", "OBJECT_ID": "2016-058B", "EPOCH": "2025-12-26T13:13:33.091680", "MEAN_MOTION": 15.4264534, "ECCENTRICITY": 0.0002638, "INCLINATION": 96.9364, "RA_OF_ASC_NODE": 25.0687, "ARG_OF_PERICENTER": 121.6623, "MEAN_ANOMALY": 238.4883, "EPHEMERIS_TYPE": 0, "CLASSIFICATION_TYPE": "U", "NORAD_CAT_ID": 41771, "ELEMENT_SET_NO": 999, "REV_AT_EPOCH": 51880, "BSTAR": 0.00036601, "MEAN_MOTION_DOT": 0.00015874, "MEAN_MOTION_DDOT": 0}, "tle": {"line1": "1 41771U 16058B   25360.55107745  .00015874  00000+0  36601-3 0  9993", "line2": "2 41771  96.9364  25.0687 0002638 121.6623 238.4883 15.42645340518809"}}, "geometry": {"type": "Point", "coordinates": [-157.52210318779626, -23.23530761012819]}}, {"type": "Feature", "properties": {"norad_id": 41772, "name": "SKYSAT-C5", "group": "resource", "lat": 49.53579397177823, "lon": 35.76138187623427, "alt_km": 461.8235107632472, "timestamp": "2025-12-26T23:26:41.810972+00:00", "meta": {"OBJECT_NAME": "SKYSAT-C5", "OBJECT_ID": "2016-058C", "EPOCH": "2025-12-26T16:57:56.362176", "MEAN_MOTION": 15.34129911, "ECCENTRICITY": 0.0004076, "INCLINATION": 97.0741, "RA_OF_ASC_NODE": 43.8739, "ARG_OF_PERICENTER": 223.4884, "MEAN_ANOMALY": 136.6039, "EPHEMERIS_TYPE": 0, "CLASSIFICATION_TYPE": "U", "NORAD_CAT_ID": 41772, "ELEMENT_SET_NO": 999, "REV_AT_EPOCH": 51730, "BSTAR": 0.00028723, "MEAN_MOTION_DOT": 9.416e-05, "MEAN_MOTION_DDOT": 0}, "tle": {"line1": "1 41772U 16058C   25360.70690234  .00009416  00000+0  28723-3 0  9992", "line2": "2 41772  97.0741  43.8739 0004076 223.4884 136.6039 15.34129911517303"}}, "geometry": {"type": "Point", "coordinates": [35.76138187623427, 49.53579397177823]}}, {"type": "Feature", "properties": {"norad_id": 41773, "name": "SKYSAT-C2", "group": "resource", "lat": -50.678206171840685, "lon": -163.77012624038824, "alt_km": 461.0631125038017, "timestamp": "2025-12-26T23:26:41.810982+00:00", "meta": {"OBJECT_NAME": "SKYSAT-C2", "OBJECT_ID": "2016-058D", "EPOCH": "2025-12-26T14:37:58.926720", "MEAN_MOTION": 15.37583734, "ECCENTRICITY": 0.0002572, "INCLINATION": 97.0353, "RA_OF_ASC_NODE": 24.5495, "ARG_OF_PERICENTER": 351.2382, "MEAN_ANOMALY": 8.8818, "EPHEMERIS_TYPE": 0, "CLASSIFICATION_TYPE": "U", "NORAD_CAT_ID": 41773, "ELEMENT_SET_NO": 999, "REV_AT_EPOCH": 51849, "BSTAR": 0.00034081, "MEAN_MOTION_DOT": 0.000125, "MEAN_MOTION_DDOT": 0}, "tle": {"line1": "1 41773U 16058D   25360.60970980  .00012500  00000+0  34081-3 0  9993", "line2": "2 41773  97.0353  24.5495 0002572 351.2382   8.8818 15.37583734518496"}}, "geometry": {"type": "Point", "coordinates": [-163.77012624038824, -50.678206171840685]}}, {"type": "Feature", "properties": {"norad_id": 41774, "name": "SKYSAT-C3", "group": "resource", "lat": 67.90386016246931, "lon": 16.632596379665145, "alt_km": 423.8922493895707, "timestamp": "2025-12-26T23:26:41.810991+00:00", "meta": {"OBJECT_NAME": "SKYSAT-C3", "OBJECT_ID": "2016-058E", "EPOCH": "2025-12-26T15:22:29.771040", "MEAN_MOTION": 15.44897562, "ECCENTRICITY": 0.0002158, "INCLINATION": 96.9285, "RA_OF_ASC_NODE": 33.7414, "ARG_OF_PERICENTER": 106.7357, "MEAN_ANOMALY": 253.413, "EPHEMERIS_TYPE": 0, "CLASSIFICATION_TYPE": "U", "NORAD_CAT_ID": 41774, "ELEMENT_SET_NO": 999, "REV_AT_EPOCH": 51940, "BSTAR": 0.00041358, "MEAN_MOTION_DOT": 0.00019372, "MEAN_MOTION_DDOT": 0}, "tle": {"line1": "1 41774U 16058E   25360.64062235  .00019372  00000+0  41358-3 0  9992", "line2": "2 41774  96.9285  33.7414 0002158 106.7357 253.4130 15.44897562519409"}}, "geometry": {"type": "Point", "coordinates": [16.632596379665145, 67.90386016246931]}}]}